#aV2024  8 26  0  0  0.00000000     288 DD+AD WGS84 FIT  NGA
## 2329  86400.00000000   300.00000000 60548 0.0000000000000
+   31     2  3  4  5  6  7  8  9 10 11 12 13 14 15 16 17 18
+         19 20 21 22 23 24 25 26 27 28 29 30 31 32  0  0  0
+          0  0  0  0  0  0  0  0  0  0  0  0  0  0  0  0  0
+          0  0  0  0  0  0  0  0  0  0  0  0  0  0  0  0  0
+          0  0  0  0  0  0  0  0  0  0  0  0  0  0  0  0  0
++         2  2  2  2  2  2  2  2  2  2  2  2  2  2  2  2  2
++         2  2  2  2  2  2  2  2  2  2  2  2  2  2  0  0  0
++         0  0  0  0  0  0  0  0  0  0  0  0  0  0  0  0  0
++         0  0  0  0  0  0  0  0  0  0  0  0  0  0  0  0  0
++         0  0  0  0  0  0  0  0  0  0  0  0  0  0  0  0  0
%c cc cc ccc ccc cccc cccc cccc cccc ccccc ccccc ccccc ccccc
%c cc cc ccc ccc cccc cccc cccc cccc ccccc ccccc ccccc ccccc
%f  0.0000000  0.000000000  0.00000000000  0.000000000000000
%f  0.0000000  0.000000000  0.00000000000  0.000000000000000
%i    0    0    0    0      0      0      0      0         0
%i    0    0    0    0      0      0      0      0         0
/*      NGA, ST. LOUIS,MO.                                  
/*   EPHEMERIS COMPUTED FROM 2 DAYS OF DATA                 
/*   EPOCHA v9 SMOOTHER                                     
/*   G2296 IERS2010 SATIGS SATAPC                           
*  2024  8 26 22 55  0.00000000
P  2 -22884.041622 -13826.523724    593.785322   -370.871384                    
V  2   1087.208869  -2077.006765 -31677.006224      0.077740                    
P  3 -12761.115029  -9875.279210  20953.748028    515.205679                    
V  3   3938.060450 -26615.610532  -9956.250252      0.143238                    
P  4 -21318.967422  -3330.808757  15595.409594    431.893991                    
V  4  17748.202950  -8752.516896  22273.492876      0.073233                    
P  5   6061.338229  23300.362317 -11319.803310   -184.538233                    
V  5  -3113.269909  13912.627895  27487.271482     -0.012678                    
P  6  -6413.150757  13376.291041  22087.475458     72.442128                    
V  6 -22153.037747 -16826.323885   3870.486034     -0.250327                    
P  7 -21443.768588  -2475.115117 -15242.953408    -45.925231                    
V  7 -14874.958368 -13753.011869  21941.203032      0.053839                    
P  8 -12206.469683 -10882.539471 -21111.633001    330.490321                    
V  8  23764.837795 -11743.905890  -7301.472582      0.139478                    
P  9 -24961.467607   6500.059494   6366.154306    330.611538                    
V  9   6323.399885  -5870.161521  30297.578840      0.157428                    
P 10  10387.326323 -21173.134937 -11666.349373   -105.866052                    
V 10    167.586875  15360.230027 -27560.226903     -0.115479                    
P 11   7674.494850  20215.197561  15498.406737   -726.979015                    
V 11 -16260.932346 -11070.234841  22467.867149     -0.050469                    
P 12  11189.116917  13820.528302  19463.754451   -533.409855                    
V 12  -5986.300858  24621.009322 -13799.366751     -0.028899                    
P 13   2708.705536  14854.257756 -22066.473800    673.085565                    
V 13 -26578.646141   6887.152476   1620.921116      0.021413                    
P 14 -13092.038587  17905.319204 -14399.486014    481.542828                    
V 14     27.084172 -18676.641796 -23398.532861      0.086601                    
P 15  13608.245553   9831.049355 -21129.617014    197.155271                    
V 15 -21440.818846  14219.017590  -7201.501109      0.043512                    
P 16   -780.116338 -25040.530082  -8440.648703   -197.744366                    
V 16   4955.837067  -9576.583039  29545.736900      0.103219                    
P 17 -20823.643904  14141.510564   9160.480355    644.311828                    
V 17 -11064.322304   1675.041028 -28914.436234     -0.101956                    
P 18  20724.349371   1856.912437 -16614.140036   -649.229417                    
V 18  15696.190311  14045.688783  20911.962292     -0.027840                    
P 19 -14163.087629  15679.520371  15672.047563    529.922859                    
V 19 -20070.570858   3950.825994 -22282.191813      0.050687                    
P 20   1567.523438  26596.558106     -7.662919    371.268989                    
V 20  -2872.300598    257.139435  31523.418779     -0.003858                    
P 21 -20690.642731 -16716.321644  -4883.768365    102.878064                    
V 21   6574.016594   1800.556889 -30306.226316     -0.006504                    
P 22  -9903.307291  23745.706081  -6775.489972    -55.515101                    
V 22   -587.760957  -9407.938898 -29978.006170     -0.039972                    
P 23  14409.956117  -9490.589287 -20100.466855    306.328392                    
V 23  -1351.841431  25578.882242 -13239.059670      0.085588                    
P 24  21755.589575  15468.274363  -2639.759030   -486.682875                    
V 24  -4079.790294   1319.786662 -30661.186232     -0.002983                    
P 25  15282.733749    867.496044  21362.793516    499.465881                    
V 25  -2615.751223  27856.673808    983.603406      0.001520                    
P 26   4669.899237 -25425.128522   5004.173745     92.306365                    
V 26   3769.048170   6790.972636  30420.109864     -0.079592                    
P 27   -354.850921 -16114.967087 -21331.169555    -33.456264                    
V 27  24598.057757  -9865.314052   7557.900163     -0.003482                    
P 28   8508.044037 -12586.601601  21775.336623   -387.955448                    
V 28  22674.262615  15863.712759    312.560413     -0.145139                    
P 29  24890.057979  -1782.593702   9238.218042   -581.705715                    
V 29 -10406.241855   5867.760050  28906.405594      0.023268                    
P 30 -14764.510072   7846.329190 -20533.304618   -332.774119                    
V 30 -20665.203882 -16548.825691   8207.969622      0.069227                    
P 31  -2958.821656 -18725.172209  18218.061561   -225.434082                    
V 31  19846.053906  13188.309244  16952.366965      0.004464                    
P 32  18905.088366 -15799.146064   9867.412410   -602.661166                    
V 32  12280.411467  -2587.766708 -28481.580585      0.031296                    
EOF
